{"type": "FeatureCollection", "features": [ {"type": "Feature", "properties": {"norad_id": 39155, "name": "COSMOS 2485 (747)", "group": "glo-ops", "lat": -34.1867086658157, "lon": 61.270933738114955, "alt_km": 19135.667644425586, "timestamp": "2025-12-25T16:53:14.924337+00:00", "meta": {"OBJECT_NAME": "COSMOS 2485 (747)", "OBJECT_ID": "2013-019A", "EPOCH": "2025-12-23T21:02:08.431872", "MEAN_MOTION": 2.13103241, "ECCENTRICITY": 0.00249991, "INCLINATION": 65.319, "RA_OF_ASC_NODE": 79.4929, "ARG_OF_PERICENTER": 230.4814, "MEAN_ANOMALY": 129.3448, "EPHEMERIS_TYPE": 0, "CLASSIFICATION_TYPE": "U", "NORAD_CAT_ID": 39155, "ELEMENT_SET_NO": 999, "REV_AT_EPOCH": 9854, "BSTAR": 0, "MEAN_MOTION_DOT": 2e-08, "MEAN_MOTION_DDOT": 0}, "tle": {"line1": "1 39155U 13019A   25357.87648648  .00000002  00000+0  00000+0 0  9990", "line2": "2 39155  65.3190  79.4929 0024999 230.4814 129.3448  2.13103241 98548"}}, "geometry": {"type": "Point", "coordinates": [61.270933738114955, -34.1867086658157]}}, {"type": "Feature", "properties": {"norad_id": 39620, "name": "COSMOS 2492 (754)", "group": "glo-ops", "lat": -5.931018491910049, "lon": -42.90906618227682, "alt_km": 19102.780934460166, "timestamp": "2025-12-25T16:53:14.924363+00:00", "meta": {"OBJECT_NAME": "COSMOS 2492 (754)", "OBJECT_ID": "2014-012A", "EPOCH": "2025-12-24T18:34:00.043104", "MEAN_MOTION": 2.13103196, "ECCENTRICITY": 0.0014265, "INCLINATION": 65.401, "RA_OF_ASC_NODE": 319.8627, "ARG_OF_PERICENTER": 314.554, "MEAN_ANOMALY": 45.3312, "EPHEMERIS_TYPE": 0, "CLASSIFICATION_TYPE": "U", "NORAD_CAT_ID": 39620, "ELEMENT_SET_NO": 999, "REV_AT_EPOCH": 9152, "BSTAR": 0, "MEAN_MOTION_DOT": -3.2e-07, "MEAN_MOTION_DDOT": 0}, "tle": {"line1": "1 39620U 14012A   25358.77361161 -.00000032  00000+0  00000+0 0  9997", "line2": "2 39620  65.4010 319.8627 0014265 314.5540  45.3312  2.13103196 91525"}}, "geometry": {"type": "Point", "coordinates": [-42.90906618227682, -5.931018491910049]}}, {"type": "Feature", "properties": {"norad_id": 40001, "name": "COSMOS 2500 (755)", "group": "glo-ops", "lat": -37.044161686419095, "lon": 159.8536391874772, "alt_km": 19114.688010290472, "timestamp": "2025-12-25T16:53:14.924407+00:00", "meta": {"OBJECT_NAME": "COSMOS 2500 (755)", "OBJECT_ID": "2014-032A", "EPOCH": "2025-12-24T22:41:43.592352", "MEAN_MOTION": 2.13106238, "ECCENTRICITY": 0.0007709, "INCLINATION": 65.3365, "RA_OF_ASC_NODE": 319.6177, "ARG_OF_PERICENTER": 219.4903, "MEAN_ANOMALY": 140.4561, "EPHEMERIS_TYPE": 0, "CLASSIFICATION_TYPE": "U", "NORAD_CAT_ID": 40001, "ELEMENT_SET_NO": 999, "REV_AT_EPOCH": 8974, "BSTAR": 0, "MEAN_MOTION_DOT": -3.2e-07, "MEAN_MOTION_DDOT": 0}, "tle": {"line1": "1 40001U 14032A   25358.94564343 -.00000032  00000+0  00000+0 0  9990", "line2": "2 40001  65.3365 319.6177 0007709 219.4903 140.4561  2.13106238 89745"}}, "geometry": {"type": "Point", "coordinates": [159.8536391874772, -37.044161686419095]}}, {"type": "Feature", "properties": {"norad_id": 40315, "name": "COSMOS 2501 (702K)", "group": "glo-ops", "lat": 19.658317207019724, "lon": -153.40246188780708, "alt_km": 19179.117348898482, "timestamp": "2025-12-25T16:53:14.924422+00:00", "meta": {"OBJECT_NAME": "COSMOS 2501 (702K)", "OBJECT_ID": "2014-075A", "EPOCH": "2025-12-25T04:55:56.926272", "MEAN_MOTION": 2.13101331, "ECCENTRICITY": 0.0020102, "INCLINATION": 63.6163, "RA_OF_ASC_NODE": 196.393, "ARG_OF_PERICENTER": 203.9317, "MEAN_ANOMALY": 156.0272, "EPHEMERIS_TYPE": 0, "CLASSIFICATION_TYPE": "U", "NORAD_CAT_ID": 40315, "ELEMENT_SET_NO": 999, "REV_AT_EPOCH": 8614, "BSTAR": 0, "MEAN_MOTION_DOT": 1.04e-06, "MEAN_MOTION_DDOT": 0}, "tle": {"line1": "1 40315U 14075A   25359.20551998  .00000104  00000+0  00000+0 0  9996", "line2": "2 40315  63.6163 196.3930 0020102 203.9317 156.0272  2.13101331 86148"}}, "geometry": {"type": "Point", "coordinates": [-153.40246188780708, 19.658317207019724]}}, {"type": "Feature", "properties": {"norad_id": 41330, "name": "COSMOS 2514 (751)", "group": "glo-ops", "lat": 30.753283109589923, "lon": -25.042568801802485, "alt_km": 19155.806314901696, "timestamp": "2025-12-25T16:53:14.924434+00:00", "meta": {"OBJECT_NAME": "COSMOS 2514 (751)", "OBJECT_ID": "2016-008A", "EPOCH": "2025-12-24T06:01:31.134720", "MEAN_MOTION": 2.13102586, "ECCENTRICITY": 0.00116213, "INCLINATION": 65.1271, "RA_OF_ASC_NODE": 319.0099, "ARG_OF_PERICENTER": 220.0868, "MEAN_ANOMALY": 139.8285, "EPHEMERIS_TYPE": 0, "CLASSIFICATION_TYPE": "U", "NORAD_CAT_ID": 41330, "ELEMENT_SET_NO": 999, "REV_AT_EPOCH": 7689, "BSTAR": 0, "MEAN_MOTION_DOT": -3.3e-07, "MEAN_MOTION_DDOT": 0}, "tle": {"line1": "1 41330U 16008A   25358.25105480 -.00000033  00000+0  00000+0 0  9999", "line2": "2 41330  65.1271 319.0099 0011621 220.0868 139.8285  2.13102586 76897"}}, "geometry": {"type": "Point", "coordinates": [-25.042568801802485, 30.753283109589923]}}, {"type": "Feature", "properties": {"norad_id": 42939, "name": "COSMOS 2522 (752)", "group": "glo-ops", "lat": 19.360261062071817, "lon": 7.9466165832517985, "alt_km": 19121.050944991657, "timestamp": "2025-12-25T16:53:14.924446+00:00", "meta": {"OBJECT_NAME": "COSMOS 2522 (752)", "OBJECT_ID": "2017-055A", "EPOCH": "2025-12-24T02:08:41.637984", "MEAN_MOTION": 2.13102066, "ECCENTRICITY": 0.00062718, "INCLINATION": 64.0767, "RA_OF_ASC_NODE": 197.8423, "ARG_OF_PERICENTER": 223.2382, "MEAN_ANOMALY": 136.7706, "EPHEMERIS_TYPE": 0, "CLASSIFICATION_TYPE": "U", "NORAD_CAT_ID": 42939, "ELEMENT_SET_NO": 999, "REV_AT_EPOCH": 6424, "BSTAR": 0, "MEAN_MOTION_DOT": 9.8e-07, "MEAN_MOTION_DDOT": 0}, "tle": {"line1": "1 42939U 17055A   25358.08937081  .00000098  00000+0  00000+0 0  9999", "line2": "2 42939  64.0767 197.8423 0006271 223.2382 136.7706  2.13102066 64248"}}, "geometry": {"type": "Point", "coordinates": [7.9466165832517985, 19.360261062071817]}}, {"type": "Feature", "properties": {"norad_id": 43508, "name": "COSMOS 2527 (756)", "group": "glo-ops", "lat": -7.586500159255016, "lon": -96.80936064222408, "alt_km": 19113.58983508779, "timestamp": "2025-12-25T16:53:14.924457+00:00", "meta": {"OBJECT_NAME": "COSMOS 2527 (756)", "OBJECT_ID": "2018-053A", "EPOCH": "2025-12-23T02:40:53.485824", "MEAN_MOTION": 2.13102391, "ECCENTRICITY": 0.00089977, "INCLINATION": 65.4775, "RA_OF_ASC_NODE": 79.785, "ARG_OF_PERICENTER": 227.5336, "MEAN_ANOMALY": 132.4355, "EPHEMERIS_TYPE": 0, "CLASSIFICATION_TYPE": "U", "NORAD_CAT_ID": 43508, "ELEMENT_SET_NO": 999, "REV_AT_EPOCH": 5852, "BSTAR": 0, "MEAN_MOTION_DOT": 1e-08, "MEAN_MOTION_DDOT": 0}, "tle": {"line1": "1 43508U 18053A   25357.11173016  .00000001  00000+0  00000+0 0  9998", "line2": "2 43508  65.4775  79.7850 0008997 227.5336 132.4355  2.13102391 58528"}}, "geometry": {"type": "Point", "coordinates": [-96.80936064222408, -7.586500159255016]}}, {"type": "Feature", "properties": {"norad_id": 43687, "name": "COSMOS 2529 (757)", "group": "glo-ops", "lat": 55.5920601064243, "lon": -26.26549341981219, "alt_km": 19137.13345564079, "timestamp": "2025-12-25T16:53:14.924469+00:00", "meta": {"OBJECT_NAME": "COSMOS 2529 (757)", "OBJECT_ID": "2018-086A", "EPOCH": "2025-12-23T05:01:04.327104", "MEAN_MOTION": 2.13102131, "ECCENTRICITY": 0.0006897, "INCLINATION": 64.2927, "RA_OF_ASC_NODE": 198.5346, "ARG_OF_PERICENTER": 253.659, "MEAN_ANOMALY": 106.3281, "EPHEMERIS_TYPE": 0, "CLASSIFICATION_TYPE": "U", "NORAD_CAT_ID": 43687, "ELEMENT_SET_NO": 999, "REV_AT_EPOCH": 5553, "BSTAR": 0, "MEAN_MOTION_DOT": 9.5e-07, "MEAN_MOTION_DDOT": 0}, "tle": {"line1": "1 43687U 18086A   25357.20907786  .00000095  00000+0  00000+0 0  9994", "line2": "2 43687  64.2927 198.5346 0006897 253.6590 106.3281  2.13102131 55539"}}, "geometry": {"type": "Point", "coordinates": [-26.26549341981219, 55.5920601064243]}}, {"type": "Feature", "properties": {"norad_id": 44299, "name": "COSMOS 2534 (758)", "group": "glo-ops", "lat": -56.7514494226108, "lon": 65.57304812426973, "alt_km": 19118.202056404447, "timestamp": "2025-12-25T16:53:14.924480+00:00", "meta": {"OBJECT_NAME": "COSMOS 2534 (758)", "OBJECT_ID": "2019-030A", "EPOCH": "2025-12-25T02:45:29.854368", "MEAN_MOTION": 2.13102173, "ECCENTRICITY": 0.00086185, "INCLINATION": 64.3664, "RA_OF_ASC_NODE": 198.4757, "ARG_OF_PERICENTER": 283.7292, "MEAN_ANOMALY": 232.7894, "EPHEMERIS_TYPE": 0, "CLASSIFICATION_TYPE": "U", "NORAD_CAT_ID": 44299, "ELEMENT_SET_NO": 999, "REV_AT_EPOCH": 5121, "BSTAR": 0, "MEAN_MOTION_DOT": 1.03e-06, "MEAN_MOTION_DDOT": 0}, "tle": {"line1": "1 44299U 19030A   25359.11492887  .00000103  00000+0  00000+0 0  9997", "line2": "2 44299  64.3664 198.4757 0008618 283.7292 232.7894  2.13102173 51210"}}, "geometry": {"type": "Point", "coordinates": [65.57304812426973, -56.7514494226108]}}, {"type": "Feature", "properties": {"norad_id": 44850, "name": "COSMOS 2544 (759)", "group": "glo-ops", "lat": -44.82535934869412, "lon": -73.50856607799749, "alt_km": 19100.843152510482, "timestamp": "2025-12-25T16:53:14.924491+00:00", "meta": {"OBJECT_NAME": "COSMOS 2544 (759)", "OBJECT_ID": "2019-088A", "EPOCH": "2025-12-23T01:21:04.162752", "MEAN_MOTION": 2.13102153, "ECCENTRICITY": 0.0014323, "INCLINATION": 65.465, "RA_OF_ASC_NODE": 79.6136, "ARG_OF_PERICENTER": 250.3939, "MEAN_ANOMALY": 109.4967, "EPHEMERIS_TYPE": 0, "CLASSIFICATION_TYPE": "U", "NORAD_CAT_ID": 44850, "ELEMENT_SET_NO": 999, "REV_AT_EPOCH": 4696, "BSTAR": 0, "MEAN_MOTION_DOT": 1e-08, "MEAN_MOTION_DDOT": 0}, "tle": {"line1": "1 44850U 19088A   25357.05629818  .00000001  00000+0  00000+0 0  9997", "line2": "2 44850  65.4650  79.6136 0014323 250.3939 109.4967  2.13102153 46964"}}, "geometry": {"type": "Point", "coordinates": [-73.50856607799749, -44.82535934869412]}}]}